NORAD_CAT_ID,OBJECT_NAME,OBJECT_TYPE,EPOCH,MEAN_MOTION,ECCENTRICITY,INCLINATION,RA_OF_ASC_NODE,ARG_OF_PERICENTER,MEAN_ANOMALY,BSTAR,MEAN_MOTION_DOT,MEAN_MOTION_DDOT,TLE_LINE0,TLE_LINE1,TLE_LINE2,SEMIMAJOR_AXIS,PERIOD,APOGEE,PERIGEE,DECAYED
53841.0,STARLINK-4750,PAYLOAD,2023-09-21 13:53:30,15.08829519,0.0001434,53.2181,15.0049,84.0677,276.0478,0.00066064,0.00010239,0.0,0 STARLINK-4750,1 53841U 22114Z   23264.57882932  .00010239  00000-0  66064-3 0  9992,2 53841  53.2181  15.0049 0001434  84.0677 276.0478 15.08829519 57088,6917.912,95.438,540.769,538.785,0.0
53841.0,STARLINK-4750,PAYLOAD,2023-09-22 10:33:31,15.0884017,0.0001329,53.2176,11.1395,88.1377,271.9767,0.00046603,7.137e-05,0.0,0 STARLINK-4750,1 53841U 22114Z   23265.43995183  .00007137  00000-0  46603-3 0  9991,2 53841  53.2176  11.1395 0001329  88.1377 271.9767 15.08840170 56673,6917.88,95.438,540.664,538.825,0.0
53841.0,STARLINK-4750,PAYLOAD,2023-09-22 13:44:18,15.08845701,0.0001388,53.2176,10.5452,85.4112,274.7039,0.00061356,9.492e-05,0.0,0 STARLINK-4750,1 53841U 22114Z   23265.57243118  .00009492  00000-0  61356-3 0  9998,2 53841  53.2176  10.5452 0001388  85.4112 274.7039 15.08845701 57233,6917.863,95.437,540.688,538.768,0.0
53841.0,STARLINK-4750,PAYLOAD,2023-09-23 11:59:41,15.08846757,0.0001485,53.2183,6.3812,96.9281,263.188,0.00024011,3.536e-05,0.0,0 STARLINK-4750,1 53841U 22114Z   23266.49978914  .00003536  00000-0  24011-3 0  9999,2 53841  53.2183   6.3812 0001485  96.9281 263.1880 15.08846757 56839,6917.86,95.437,540.752,538.697,0.0
53841.0,STARLINK-4750,PAYLOAD,2023-09-23 13:35:04,15.08847163,0.0001473,53.2184,6.0839,97.6601,262.4559,0.0002889,4.314e-05,0.0,0 STARLINK-4750,1 53841U 22114Z   23266.56602898  .00004314  00000-0  28890-3 0  9996,2 53841  53.2184   6.0839 0001473  97.6601 262.4559 15.08847163 57385,6917.858,95.437,540.742,538.704,0.0
53841.0,STARLINK-4750,PAYLOAD,2023-09-24 10:15:05,15.08843829,0.00016,53.2185,2.2185,98.0484,262.069,8.5694e-05,1.076e-05,0.0,0 STARLINK-4750,1 53841U 22114Z   23267.42714837  .00001076  00000-0  85694-4 0  9997,2 53841  53.2185   2.2185 0001600  98.0484 262.0690 15.08843829 56975,6917.869,95.437,540.841,538.627,0.0
53841.0,STARLINK-4750,PAYLOAD,2023-09-24 13:25:51,15.08847061,0.0001599,53.2185,1.6241,96.2778,263.8396,0.0001534,2.155e-05,0.0,0 STARLINK-4750,1 53841U 22114Z   23267.55962738  .00002155  00000-0  15340-3 0  9995,2 53841  53.2185   1.6241 0001599  96.2778 263.8396 15.08847061 57531,6917.859,95.437,540.83,538.618,0.0
53841.0,STARLINK-4750,PAYLOAD,2023-09-24 16:36:37,15.08850439,0.0001537,53.2181,1.0281,95.2221,264.8947,0.00021249,3.096e-05,0.0,0 STARLINK-4750,1 53841U 22114Z   23267.69210546  .00003096  00000-0  21249-3 0  9993,2 53841  53.2181   1.0281 0001537  95.2221 264.8947 15.08850439 57557,6917.848,95.437,540.777,538.65,0.0
53841.0,STARLINK-4750,PAYLOAD,2023-09-25 13:16:38,15.08854253,0.0001555,53.2184,357.1641,97.8323,262.2846,0.00031191,4.681e-05,0.0,0 STARLINK-4750,1 53841U 22114Z   23268.55322432  .00004681  00000-0  31191-3 0  9995,2 53841  53.2184 357.1641 0001555  97.8323 262.2846 15.08854253 57688,6917.837,95.437,540.778,538.626,0.0
53841.0,STARLINK-4750,PAYLOAD,2023-09-26 09:56:40,15.08835206,9.66e-05,53.2174,353.2967,70.9605,289.1492,-2.6487e-05,-7.09e-06,0.0,0 STARLINK-4750,1 53841U 22114Z   23269.41435432 -.00000709  00000-0 -26487-4 0  9998,2 53841  53.2174 353.2967 0000966  70.9605 289.1492 15.08835206 57272,6917.895,95.438,540.428,539.092,0.0
53841.0,STARLINK-4750,PAYLOAD,2023-09-26 13:07:26,15.08836573,0.0001261,53.2168,352.7069,95.2955,264.8181,8.1251e-05,1.005e-05,0.0,0 STARLINK-4750,1 53841U 22114Z   23269.54683343  .00001005  00000-0  81251-4 0  9996,2 53841  53.2168 352.7069 0001261  95.2955 264.8181 15.08836573 57834,6917.891,95.438,540.628,538.884,0.0
53841.0,STARLINK-4750,PAYLOAD,2023-09-27 09:47:27,15.08844109,0.0001572,53.2177,348.8385,92.8335,267.2837,0.0001984,2.871e-05,0.0,0 STARLINK-4750,1 53841U 22114Z   23270.40795389  .00002871  00000-0  19840-3 0  9993,2 53841  53.2177 348.8385 0001572  92.8335 267.2837 15.08844109 57425,6917.868,95.437,540.82,538.645,0.0
53841.0,STARLINK-4750,PAYLOAD,2023-09-27 12:58:13,15.08849894,0.000159,53.2175,348.2435,84.0089,276.1084,0.00042003,6.405e-05,0.0,0 STARLINK-4750,1 53841U 22114Z   23270.54043309  .00006405  00000-0  42003-3 0  9990,2 53841  53.2175 348.2435 0001590  84.0089 276.1084 15.08849894 57982,6917.85,95.437,540.815,538.615,0.0
53841.0,STARLINK-4750,PAYLOAD,2023-09-28 04:52:05,15.08837666,0.0001677,53.2174,345.2719,76.8981,283.2198,0.00011415,1.529e-05,0.0,0 STARLINK-4750,1 53841U 22114Z   23271.20283907  .00001529  00000-0  11415-3 0  9999,2 53841  53.2174 345.2719 0001677  76.8981 283.2198 15.08837666 57540,6917.888,95.438,540.913,538.592,0.0
53841.0,STARLINK-4750,PAYLOAD,2023-09-28 14:24:24,15.0884267,0.0001745,53.2169,343.4861,75.9772,284.1414,0.00025685,3.802e-05,0.0,0 STARLINK-4750,1 53841U 22114Z   23271.60027962  .00003802  00000-0  25685-3 0  9990,2 53841  53.2169 343.4861 0001745  75.9772 284.1414 15.08842670 58145,6917.872,95.437,540.944,538.53,0.0
53841.0,STARLINK-4750,PAYLOAD,2023-09-29 11:04:25,15.08841547,0.0001803,53.2176,339.6199,95.1327,264.9871,0.00015215,2.134e-05,0.0,0 STARLINK-4750,1 53841U 22114Z   23272.46140139  .00002134  00000-0  15215-3 0  9992,2 53841  53.2176 339.6199 0001803  95.1327 264.9871 15.08841547 57738,6917.876,95.437,540.988,538.493,0.0
53841.0,STARLINK-4750,PAYLOAD,2023-09-30 10:55:11,15.08859272,0.0001652,53.2174,335.1599,87.4044,272.7138,0.00047426,7.272e-05,0.0,0 STARLINK-4750,1 53841U 22114Z   23273.45499332  .00007272  00000-0  47426-3 0  9991,2 53841  53.2174 335.1599 0001652  87.4044 272.7138 15.08859272 57886,6917.821,95.436,540.829,538.544,0.0
53841.0,STARLINK-4750,PAYLOAD,2023-10-01 04:24:25,15.08853065,0.00017,53.218,331.8878,88.7993,271.3194,0.00022085,3.23e-05,0.0,0 STARLINK-4750,1 53841U 22114Z   23274.18363201  .00003230  00000-0  22085-3 0  9991,2 53841  53.2180 331.8878 0001700  88.7993 271.3194 15.08853065 57990,6917.84,95.437,540.881,538.529,0.0
53841.0,STARLINK-4750,PAYLOAD,2023-10-01 10:45:58,15.08849385,0.0001627,53.217,330.6966,88.6682,271.4497,9.6434e-05,1.247e-05,0.0,0 STARLINK-4750,1 53841U 22114Z   23274.44859083  .00001247  00000-0  96434-4 0  9994,2 53841  53.2170 330.6966 0001627  88.6682 271.4497 15.08849385 58578,6917.852,95.437,540.842,538.591,0.0
53841.0,STARLINK-4750,PAYLOAD,2023-10-01 20:18:17,15.08841324,0.0001605,53.2166,328.9157,94.5655,265.552,-5.7563e-05,-1.204e-05,0.0,0 STARLINK-4750,1 53841U 22114Z   23274.84603279 -.00001204  00000-0 -57563-4 0  9997,2 53841  53.2166 328.9157 0001605  94.5655 265.5520 15.08841324 58630,6917.876,95.437,540.852,538.631,0.0
53841.0,STARLINK-4750,PAYLOAD,2023-10-02 02:39:49,15.08838547,0.0001775,53.2173,327.7301,95.8785,264.2409,-0.00017066,-3.003e-05,0.0,0 STARLINK-4750,1 53841U 22114Z   23275.11099382 -.00003003  00000-0 -17066-3 0  9994,2 53841  53.2173 327.7301 0001775  95.8785 264.2409 15.08838547 58132,6917.885,95.438,540.978,538.522,0.0
53841.0,STARLINK-4750,PAYLOAD,2023-10-02 10:36:46,15.08833073,0.0001702,53.2171,326.2402,85.8561,274.2626,-0.00017201,-3.024e-05,0.0,0 STARLINK-4750,1 53841U 22114Z   23275.44220079 -.00003024  00000-0 -17201-3 0  9993,2 53841  53.2171 326.2402 0001702  85.8561 274.2626 15.08833073 58183,6917.902,95.438,540.944,538.589,0.0
53841.0,STARLINK-4750,PAYLOAD,2023-10-03 08:52:10,15.0885062,0.0001693,53.2166,322.0762,85.8157,274.3028,0.00083373,0.0001301,0.0,0 STARLINK-4750,1 53841U 22114Z   23276.36956269  .00013010  00000-0  83373-3 0  9999,2 53841  53.2166 322.0762 0001693  85.8157 274.3028 15.08850620 58320,6917.848,95.437,540.884,538.542,0.0
53841.0,STARLINK-4750,PAYLOAD,2023-10-04 10:18:20,15.08842738,0.000178,53.2167,317.3175,91.7885,268.3311,0.00018833,2.711e-05,0.0,0 STARLINK-4750,1 53841U 22114Z   23277.42940265  .00002711  00000-0  18833-3 0  9991,2 53841  53.2167 317.3175 0001780  91.7885 268.3311 15.08842738 58483,6917.872,95.437,540.968,538.506,0.0
53841.0,STARLINK-4750,PAYLOAD,2023-10-04 11:53:43,15.08849548,0.0001623,53.2157,317.0192,92.1289,267.9889,0.00031109,4.668e-05,0.0,0 STARLINK-4750,1 53841U 22114Z   23277.49564001  .00004668  00000-0  31109-3 0  9992,2 53841  53.2157 317.0192 0001623  92.1289 267.9889 15.08849548 59030,6917.851,95.437,540.839,538.593,0.0
53841.0,STARLINK-4750,PAYLOAD,2023-10-04 19:50:39,15.0884731,0.0001819,53.2167,315.5332,79.1967,280.923,0.00020065,2.907e-05,0.0,0 STARLINK-4750,1 53841U 22114Z   23277.82684064  .00002907  00000-0  20065-3 0  9994,2 53841  53.2167 315.5332 0001819  79.1967 280.9230 15.08847310 59080,6917.858,95.437,540.981,538.465,0.0
53841.0,STARLINK-4750,PAYLOAD,2023-10-05 11:44:30,15.08849526,0.000175,53.2159,312.5589,85.08,275.0392,0.00035349,5.344e-05,0.0,0 STARLINK-4750,1 53841U 22114Z   23278.48924028  .00005344  00000-0  35349-3 0  9993,2 53841  53.2159 312.5589 0001750  85.0800 275.0392 15.08849526 59184,6917.851,95.437,540.927,538.506,0.0
53841.0,STARLINK-4750,PAYLOAD,2023-10-05 19:41:26,15.0883792,0.000164,53.2158,311.0698,93.6376,266.4803,0.00012712,1.736e-05,0.0,0 STARLINK-4750,1 53841U 22114Z   23278.82044344  .00001736  00000-0  12712-3 0  9995,2 53841  53.2158 311.0698 0001640  93.6376 266.4803 15.08837920 58690,6917.887,95.438,540.886,538.617,0.0
53841.0,STARLINK-4750,PAYLOAD,2023-10-06 08:24:31,15.08844054,0.0001617,53.2155,308.6926,92.8037,267.314,0.00020614,2.995e-05,0.0,0 STARLINK-4750,1 53841U 22114Z   23279.35036348  .00002995  00000-0  20614-3 0  9997,2 53841  53.2155 308.6926 0001617  92.8037 267.3140 15.08844054 59312,6917.868,95.437,540.852,538.614,0.0
53841.0,STARLINK-4750,PAYLOAD,2023-10-07 01:53:46,15.08843288,0.0001621,53.2152,305.4222,86.8058,273.312,0.00028161,4.197e-05,0.0,0 STARLINK-4750,1 53841U 22114Z   23280.07900621  .00004197  00000-0  28161-3 0  9993,2 53841  53.2152 305.4222 0001621  86.8058 273.3120 15.08843288 58888,6917.87,95.437,540.857,538.614,0.0
